[ {"name": "STARLINK-31804", "line1": "1 59641U 24082L   26099.01861395  .00001656  00000+0  69682-4 0  9992", "line2": "2 59641  43.0009 328.2473 0000891 310.9863  49.0912 15.27579387109458"}, {"name": "STARLINK-31660", "line1": "1 59642U 24082M   26098.79024675  .00002429  00000+0  97814-4 0  9996", "line2": "2 59642  42.9992 289.4446 0001560 265.5471  94.5203 15.27562551110073"}, {"name": "STARLINK-31800", "line1": "1 59643U 24082N   26099.05588077 -.00003562  00000+0 -11999-3 0  9998", "line2": "2 59643  43.0037 328.5100 0002244 271.0873  88.9721 15.27566975109553"}, {"name": "STARLINK-31789", "line1": "1 59644U 24082P   26099.03017304  .00024814  00000+0  90760-3 0  9991", "line2": "2 59644  43.0035 328.3329 0001890 263.4092  96.6545 15.27602060109654"}, {"name": "STARLINK-31795", "line1": "1 59645U 24082Q   26098.52839578 -.00000606  00000+0 -12515-4 0  9998", "line2": "2 59645  43.0020 272.7238 0000794 230.8558 129.2223 15.27579859110047"}, {"name": "STARLINK-31796", "line1": "1 59646U 24082R   26099.03660105  .00004096  00000+0  15828-3 0  9998", "line2": "2 59646  43.0001 328.3842 0001437 273.8476  86.2212 15.27582597109611"}, {"name": "STARLINK-31801", "line1": "1 59647U 24082S   26099.00847539  .00000115  00000+0  13710-4 0  9991", "line2": "2 59647  43.0010 329.0253 0001094 254.1262 105.9469 15.27577720109491"}, {"name": "STARLINK-31787", "line1": "1 59650U 24082V   26099.04045670 -.00003353  00000+0 -11237-3 0  9995", "line2": "2 59650  43.0004 328.4128 0001374 285.5296  74.5404 15.27580581109655"}, {"name": "STARLINK-31277", "line1": "1 59651U 24082W   26099.04816450  .00000741  00000+0  36451-4 0  9990", "line2": "2 59651  43.0023 328.4664 0001384 272.2592  87.8101 15.27576468109655"}, {"name": "STARLINK-31799", "line1": "1 59652U 24082X   26099.02005059 -.00001049  00000+0 -28586-4 0  9998", "line2": "2 59652  43.0023 317.8480 0001407 263.5492  96.5199 15.27590158109625"}, {"name": "STARLINK-31764", "line1": "1 59653U 24082Y   26099.02632767  .00000182  00000+0  16143-4 0  9992", "line2": "2 59653  43.0053 328.3004 0001142 275.4473  84.6248 15.27576384109656"}, {"name": "STARLINK-31589", "line1": "1 59654U 24084A   26099.08474967 -.00000973  00000+0 -25845-4 0  9996", "line2": "2 59654  43.0015 229.9757 0000844 217.3349 142.7444 15.27574252109040"}, {"name": "STARLINK-31665", "line1": "1 59655U 24084B   26099.28911152 -.00000823  00000+0 -20378-4 0  9991", "line2": "2 59655  43.0016 225.4722 0001364 254.3652 105.7049 15.27568097109096"}, {"name": "STARLINK-31912", "line1": "1 59656U 24084C   26098.78610510  .00001422  00000+0  61250-4 0  9998", "line2": "2 59656  43.0011 232.0342 0001171 268.7957  91.2760 15.27549594108973"}, {"name": "STARLINK-31904", "line1": "1 59657U 24084D   26098.64503098 -.00000307  00000+0 -16282-5 0  9995", "line2": "2 59657  43.0006 232.6954 0000877 268.8205  91.2546 15.27578409108959"}, {"name": "STARLINK-31858", "line1": "1 59658U 24084E   26099.07701753  .00002741  00000+0  10901-3 0  9994", "line2": "2 59658  43.0008 229.9193 0000227 330.2438  29.8400 15.27598263109022"}, {"name": "STARLINK-31881", "line1": "1 59659U 24084F   26099.06980912  .00000897  00000+0  42119-4 0  9997", "line2": "2 59659  43.0020 226.4025 0001295 263.1019  96.9686 15.27573012109068"}, {"name": "STARLINK-31885", "line1": "1 59660U 24084G   26098.64294560 -.00001257  00000+0 -36156-4 0  9996", "line2": "2 59660  43.0004 229.2181 0001185 273.9129  86.1587 15.27578741108991"}, {"name": "STARLINK-31880", "line1": "1 59661U 24084H   26098.62880848 -.00003961  00000+0 -13442-3 0  9991", "line2": "2 59661  43.0046 229.1178 0002241 281.4306  78.6294 15.27590191108992"}, {"name": "STARLINK-31886", "line1": "1 59662U 24084J   26098.65145857 -.00000963  00000+0 -25476-4 0  9999", "line2": "2 59662  42.9940 232.7398 0001354 123.4239 236.6742 15.27577882108954"}, {"name": "STARLINK-31909", "line1": "1 59663U 24084K   26099.32830999  .00000125  00000+0  14072-4 0  9991", "line2": "2 59663  43.0001 228.4008 0001248 281.2917  78.7795 15.27572933109061"}, {"name": "STARLINK-31910", "line1": "1 59664U 24084L   26099.08089257 -.00001244  00000+0 -35683-4 0  9994", "line2": "2 59664  42.9998 229.9391 0000831 247.8483 112.2280 15.27577762109023"}, {"name": "STARLINK-31902", "line1": "1 59666U 24084N   26099.05148899 -.00000908  00000+0 -23502-4 0  9994", "line2": "2 59666  43.0000 230.5834 0000731 281.4726  78.6043 15.27571045109013"}, {"name": "STARLINK-31913", "line1": "1 59667U 24084P   26099.08266537 -.00000779  00000+0 -18804-4 0  9993", "line2": "2 59667  43.0024 226.4976 0001010 240.8494 119.2256 15.27574752109064"}, {"name": "STARLINK-31866", "line1": "1 59668U 24084Q   26099.32412531  .00000590  00000+0  30972-4 0  9997", "line2": "2 59668  43.0017 221.3907 0001052 253.7203 106.3533 15.27577607109148"}, {"name": "STARLINK-31917", "line1": "1 59669U 24084R   26098.64117677 -.00000597  00000+0 -12159-4 0  9991", "line2": "2 59669  43.0003 232.6527 0001720 270.5535  89.5119 15.27576644108954"}, {"name": "STARLINK-31860", "line1": "1 59670U 24084S   26098.63908818  .00005722  00000+0  21728-3 0  9991", "line2": "2 59670  42.9997 229.1852 0001727 278.3986  81.6670 15.27582378108979"}, {"name": "STARLINK-31854", "line1": "1 59671U 24084T   26099.31444326 -.00006585  00000+0 -22980-3 0  9998", "line2": "2 59671  43.0008 195.8214 0000731 302.9301  57.1480 15.27606888109415"}, {"name": "STARLINK-31842", "line1": "1 59672U 24084U   26099.03911384 -.00001033  00000+0 -28006-4 0  9990", "line2": "2 59672  42.9989 227.0251 0001074 271.2331  88.8398 15.27584355109056"}, {"name": "STARLINK-31871", "line1": "1 59673U 24084V   26099.09116789 -.00000011  00000+0  91093-5 0  9994", "line2": "2 59673  43.0020 230.0114 0001138 248.6085 111.4646 15.27577659109027"}, {"name": "STARLINK-31875", "line1": "1 59674U 24084W   26098.63138191  .00001435  00000+0  61656-4 0  9996", "line2": "2 59674  43.0015 229.1303 0000849 270.7115  89.3639 15.27570201108995"}, {"name": "STARLINK-31877", "line1": "1 59675U 24084X   26098.77965997 -.00000902  00000+0 -23256-4 0  9998", "line2": "2 59675  43.0003 231.9753 0001652 272.0124  88.0538 15.27576600108972"}, {"name": "STARLINK-31884", "line1": "1 59676U 24084Y   26099.09501832  .00000421  00000+0  24843-4 0  9996", "line2": "2 59676  43.0065 230.0750 0002582 286.4191  73.6377 15.27588614109020"}, {"name": "STARLINK-32108", "line1": "1 59682U 24086A   26099.11794501  .00008647  00000+0  32374-3 0  9990", "line2": "2 59682  43.0003 251.6593 0000530 274.2343  85.8448 15.27543634108710"}, {"name": "STARLINK-32080", "line1": "1 59683U 24086B   26099.13978370  .00002746  00000+0  10933-3 0  9992", "line2": "2 59683  43.0042 251.8322 0001020 280.3200  79.7537 15.27564115108731"}, {"name": "STARLINK-32091", "line1": "1 59684U 24086C   26099.25644273  .00002356  00000+0  95104-4 0  9999", "line2": "2 59684  43.0025 239.7746 0001759 266.6631  93.4019 15.27579067108888"}, {"name": "STARLINK-32085", "line1": "1 59685U 24086D   26098.77863785  .00000051  00000+0  11371-4 0  9991", "line2": "2 59685  42.9988 249.9885 0001195 258.8303 101.2415 15.27588768108713"}, {"name": "STARLINK-32100", "line1": "1 59686U 24086E   26099.06169176 -.00001236  00000+0 -35414-4 0  9990", "line2": "2 59686  42.9997 230.2640 0001144 274.2113  85.8607 15.27582222108967"}, {"name": "STARLINK-32089", "line1": "1 59687U 24086F   26098.69783493  .00001276  00000+0  55900-4 0  9997", "line2": "2 59687  43.0012 250.2444 0001501 269.8591  90.2088 15.27581493108703"}, {"name": "STARLINK-32103", "line1": "1 59688U 24086G   26098.69801805  .00000010  00000+0  99012-5 0  9994", "line2": "2 59688  43.0021 239.8613 0001297 309.8857  50.1881 15.27551774108825"}, {"name": "STARLINK-32105", "line1": "1 59689U 24086H   26098.82218581 -.00001204  00000+0 -34220-4 0  9990", "line2": "2 59689  43.0014 249.4568 0001530 261.7851  98.2827 15.27577747108724"}, {"name": "STARLINK-32106", "line1": "1 59690U 24086J   26099.11410531 -.00000100  00000+0  58818-5 0  9997", "line2": "2 59690  43.0037 240.4237 0001419 261.9691  98.0999 15.27573390108857"}, {"name": "STARLINK-32090", "line1": "1 59691U 24086K   26099.13592645  .00001178  00000+0  52347-4 0  9992", "line2": "2 59691  43.0030 251.8258 0001263 269.4671  90.6036 15.27576089108722"}, {"name": "STARLINK-32088", "line1": "1 59693U 24086M   26099.12181572 -.00000077  00000+0  67284-5 0  9991", "line2": "2 59693  43.0032 240.4827 0001399 257.8809 102.1886 15.27575926108851"}, {"name": "STARLINK-32107", "line1": "1 59694U 24086N   26099.12356109 -.00000078  00000+0  66957-5 0  9999", "line2": "2 59694  43.0024 248.2754 0000981 276.2495  83.8245 15.27577330108765"}, {"name": "STARLINK-32104", "line1": "1 59695U 24086P   26099.12274357  .00001702  00000+0  71394-4 0  9998", "line2": "2 59695  43.0050 244.7372 0001377 277.6405  82.4290 15.27570717108800"}, {"name": "STARLINK-32094", "line1": "1 59696U 24086Q   26099.12742184 -.00000666  00000+0 -14697-4 0  9990", "line2": "2 59696  43.0011 248.3067 0000766 308.8252  51.2531 15.27571882108768"}, {"name": "STARLINK-32099", "line1": "1 59697U 24086R   26098.43370872 -.00031701  00000+0 -11499-2 0  9994", "line2": "2 59697  43.0010 251.7025 0000645 229.0215 131.0581 15.27509219108665"}, {"name": "STARLINK-32096", "line1": "1 59698U 24086S   26098.84016535 -.00000521  00000+0 -94289-5 0  9990", "line2": "2 59698  42.9998 249.5883 0001052 275.1254  84.9477 15.27587923108729"}, {"name": "STARLINK-32102", "line1": "1 59699U 24086T   26098.83246425  .00015108  00000+0  55730-3 0  9994", "line2": "2 59699  43.0007 249.5353 0001291 261.8158  98.2547 15.27587104108722"}, {"name": "STARLINK-32092", "line1": "1 59700U 24086U   26098.78507122 -.00001381  00000+0 -40672-4 0  9995", "line2": "2 59700  42.9996 250.0347 0001008 273.1228  86.9508 15.27568711108713"}, {"name": "STARLINK-32093", "line1": "1 59701U 24086V   26098.78248742  .00000186  00000+0  16260-4 0  9992", "line2": "2 59701  42.9998 250.0144 0001237 275.3180  84.7530 15.27589363108713"}]